SIRIUS-1                
1 26390U 00035A   15119.23360267 -.00000073  00000-0  00000+0 0  9994
2 26390  59.8419 236.7521 2636973 268.7685  61.3068  1.00287493 54313
SIRIUS-2                
1 26483U 00051A   15118.42619564  .00000123  00000-0  00000+0 0  9997
2 26483  64.3456 116.6909 2678114 270.4428 246.0525  1.00278569 53641
SIRIUS-3                
1 26626U 00077A   15120.31862454 -.00000126  00000-0  00000+0 0  9997
2 26626  64.4976 356.5874 2665086 270.3251 329.2971  1.00284947 52792
XM-1 (ROLL)             
1 26761U 01018A   15120.61349296 -.00000031  00000-0  10000-3 0  9990
2 26761   0.1359 260.4293 0003975 324.5124  98.8954  1.00272896 51254
XM-3 (RHYTHM)           
1 28626U 05008A   15120.31383256 -.00000214  00000-0  10000-3 0  9999
2 28626   0.0321  77.0381 0000394 257.9554 270.8193  1.00272452 37295
XM-4 (BLUES)            
1 29520U 06049A   15120.61358159 -.00000031  00000-0  00000+0 0  9998
2 29520   0.0122 126.5558 0000189 260.1073 297.2270  1.00273203 31229
O3B FM5                 
1 39188U 13031A   15119.32121718 -.00000029  00000-0  00000+0 0  9990
2 39188   0.0309 350.8149 0003302  30.8321 338.3686  5.00116370 33655
O3B FM4                 
1 39189U 13031B   15118.32030683 -.00000031  00000-0  00000+0 0  9993
2 39189   0.0521 358.7004 0001925 270.4525  90.8267  5.00116154 33606
O3B FM2                 
1 39190U 13031C   15117.82088168 -.00000032  00000-0  00000+0 0  9991
2 39190   0.0572   4.5778 0002813 257.1384  98.2517  5.00116744 33571
O3B PFM                 
1 39191U 13031D   15118.02199825 -.00000031  00000-0  00000+0 0  9997
2 39191   0.0333   8.8545 0003061  11.0002 340.1571  5.00116998 33598
O3B FM3                 
1 40079U 14038A   15116.73414221 -.00000033  00000-0  00000+0 0  9990
2 40079   0.0438   0.9604 0004897  38.3582 320.7163  5.00116353 14510
O3B FM7                 
1 40080U 14038B   15117.88885321 -.00000032  00000-0  00000+0 0  9991
2 40080   0.0457   0.8040 0003149  34.9047 324.3137  5.00115815 14594
O3B FM6                 
1 40081U 14038C   15118.31083407 -.00000031  00000-0  00000+0 0  9995
2 40081   0.0444 359.3871 0003674  38.4743 322.1629  5.00116416 14613
O3B FM8                 
1 40082U 14038D   15118.35525416 -.00000031  00000-0  00000+0 0  9991
2 40082   0.0478 357.6826 0003254  11.6833 350.6376  5.00115826 14595
O3B FM10                
1 40348U 14083A   15120.17667153 -.00000027  00000-0  00000+0 0  9999
2 40348   0.0382   1.6568 0002363  58.8361 299.5314  5.00116251  6645
O3B FM11                
1 40349U 14083B   15117.80011648 -.00000032  00000-0  00000+0 0  9994
2 40349   0.0356 359.2086 0002204  43.8883 316.9197  5.00116467  6520
O3B FM12                
1 40350U 14083C   15118.26681290 -.00000031  00000-0  00000+0 0  9992
2 40350   0.0347 352.1950 0002528  35.8313 331.9878  5.00116285  6545
O3B FM9                 
1 40351U 14083D   15118.44428536 -.00000031  00000-0  00000+0 0  9995
2 40351   0.0351   2.2373 0002307  45.2326 312.5497  5.00116318  6557
